{"type":"FeatureCollection","features":[{"type":"Feature","id":"051ed2bd-b21c-44d9-ba04-093d3de1e7b7","geometry":{"type":"Point","coordinates":[250.48, 2100.09]},"properties":{"objectType":"annotation","classification":{"name":"DTip","color":[135, 11, 46]}}},{"type":"Feature","id":"12757b82-4892-4f7e-97d2-7d81980bf21a","geometry":{"type":"Point","coordinates":[4817.47, 2045.19]},"properties":{"objectType":"annotation","classification":{"name":"alula notch","color":[65, 51, 214]}}},{"type":"Feature","id":"27819147-f70e-44e1-af8f-ddeef0f4988c","geometry":{"type":"Point","coordinates":[3991.46, 1221.58]},"properties":{"objectType":"annotation","classification":{"name":"subcostal break","color":[240, 214, 69]}}},{"type":"Feature","id":"476b6ef0-825a-41f6-90ba-c00c1fa00680","geometry":{"type":"Point","coordinates":[4740.41, 1527.42]},"properties":{"objectType":"annotation","classification":{"name":"L1-Rs","color":[166, 127, 120]}}},{"type":"Feature","id":"e342be35-9f22-4f90-9ec6-105b52cad34f","geometry":{"type":"Point","coordinates":[4921.03, 1688.77]},"properties":{"objectType":"annotation","classification":{"name":"L4-L5","color":[7, 210, 242]}}},{"type":"Feature","id":"50e3ba52-0fbd-4c6e-ad29-3a7950d7921c","geometry":{"type":"Point","coordinates":[3608.31, 1877.2]},"properties":{"objectType":"annotation","classification":{"name":"ACV.p","color":[255, 94, 0]}}},{"type":"Feature","id":"e99d91fd-b1ea-4430-96b4-c1a48ec69733","geometry":{"type":"Point","coordinates":[2731.85, 2213.26]},"properties":{"objectType":"annotation","classification":{"name":"PCV.a","color":[0, 255, 0]}}},{"type":"Feature","id":"c3d62381-2d96-46f7-b717-aec516844b24","geometry":{"type":"Point","coordinates":[3562.29, 1720.99]},"properties":{"objectType":"annotation","classification":{"name":"ACV.a","color":[230, 153, 77]}}},{"type":"Feature","id":"446e451b-3ac8-4cab-a22b-c7781b8ca547","geometry":{"type":"Point","coordinates":[2867.94, 2576.09]},"properties":{"objectType":"annotation","classification":{"name":"PCV.p","color":[196, 255, 0]}}},{"type":"Feature","id":"1fdef8fc-f76d-4863-8f4f-e455ec7fd068","geometry":{"type":"Point","coordinates":[4263.28, 1581.79]},"properties":{"objectType":"annotation","classification":{"name":"L2-L3","color":[255, 0, 255]}}}]}