{"type":"FeatureCollection","features":[{"type":"Feature","id":"71f96c12-f4ff-453f-9615-8646e635bcdf","geometry":{"type":"Point","coordinates":[4794.4, 1474.18]},"properties":{"objectType":"annotation","classification":{"name":"L4-L5","color":[7, 210, 242]}}},{"type":"Feature","id":"6a4d760f-88b9-40ed-8dec-a768a9862542","geometry":{"type":"Point","coordinates":[4726.97, 1803.3]},"properties":{"objectType":"annotation","classification":{"name":"alula notch","color":[65, 51, 214]}}},{"type":"Feature","id":"d768f460-736f-4993-a26e-b405b0edb3f6","geometry":{"type":"Point","coordinates":[331.59, 2095.46]},"properties":{"objectType":"annotation","classification":{"name":"DTip","color":[135, 11, 46]}}},{"type":"Feature","id":"68208f33-2d28-400b-8ecb-a05ace6c881a","geometry":{"type":"Point","coordinates":[4571.75, 1310.27]},"properties":{"objectType":"annotation","classification":{"name":"L1-Rs","color":[166, 127, 120]}}},{"type":"Feature","id":"62351d1a-c05b-4bf7-9154-163a1e9206c7","geometry":{"type":"Point","coordinates":[2718.06, 2072.17]},"properties":{"objectType":"annotation","classification":{"name":"PCV.a","color":[0, 255, 0]}}},{"type":"Feature","id":"37ab0973-6560-4623-b26f-13d4ca3d62b4","geometry":{"type":"Point","coordinates":[3898.91, 1055.48]},"properties":{"objectType":"annotation","classification":{"name":"subcostal break","color":[240, 214, 69]}}},{"type":"Feature","id":"a2613ea0-7787-44a4-9ac1-5ea7c1d6d202","geometry":{"type":"Point","coordinates":[3540.25, 1714.55]},"properties":{"objectType":"annotation","classification":{"name":"ACV.p","color":[255, 94, 0]}}},{"type":"Feature","id":"3f3e56b1-ee09-4801-80a2-06587a9b5edd","geometry":{"type":"Point","coordinates":[2849.5, 2456.71]},"properties":{"objectType":"annotation","classification":{"name":"PCV.p","color":[196, 255, 0]}}},{"type":"Feature","id":"9de929fa-c572-473f-b27a-18d5507d55b8","geometry":{"type":"Point","coordinates":[3503.07, 1568.22]},"properties":{"objectType":"annotation","classification":{"name":"ACV.a","color":[230, 153, 77]}}},{"type":"Feature","id":"4d8920e9-21ea-498e-b2e8-4295f1b6e949","geometry":{"type":"Point","coordinates":[4168.68, 1393.53]},"properties":{"objectType":"annotation","classification":{"name":"L2-L3","color":[255, 0, 255]}}}]}