{"type":"FeatureCollection","features":[{"type":"Feature","id":"77d71c29-8b45-4ffb-81ee-f4b960024d6e","geometry":{"type":"Point","coordinates":[248.01, 2031.57]},"properties":{"objectType":"annotation","classification":{"name":"DTip","color":[135, 11, 46]}}},{"type":"Feature","id":"76894895-e826-477f-94ba-a807019a191f","geometry":{"type":"Point","coordinates":[3854.91, 1088.06]},"properties":{"objectType":"annotation","classification":{"name":"subcostal break","color":[240, 214, 69]}}},{"type":"Feature","id":"41e4863d-8697-433f-b07d-3c5fb79ba788","geometry":{"type":"Point","coordinates":[4674.41, 1848.26]},"properties":{"objectType":"annotation","classification":{"name":"alula notch","color":[65, 51, 214]}}},{"type":"Feature","id":"d649c78f-9902-4a87-86d4-7afc3ae2c780","geometry":{"type":"Point","coordinates":[4722.93, 1524.77]},"properties":{"objectType":"annotation","classification":{"name":"L4-L5","color":[7, 210, 242]}}},{"type":"Feature","id":"9d51b8a6-f92e-483f-aaa7-b1ca615feddf","geometry":{"type":"Point","coordinates":[4545.01, 1368.42]},"properties":{"objectType":"annotation","classification":{"name":"L1-Rs","color":[166, 127, 120]}}},{"type":"Feature","id":"1fa85eb0-31ec-4139-92ab-b63094b44854","geometry":{"type":"Point","coordinates":[3482.37, 1728.55]},"properties":{"objectType":"annotation","classification":{"name":"ACV.p","color":[255, 94, 0]}}},{"type":"Feature","id":"3330987d-848d-49a8-99e1-c8b78d63379f","geometry":{"type":"Point","coordinates":[2667.06, 2050.95]},"properties":{"objectType":"annotation","classification":{"name":"PCV.a","color":[0, 255, 0]}}},{"type":"Feature","id":"5f332a64-6f05-4286-bf74-f0ba5838c13e","geometry":{"type":"Point","coordinates":[3438.7, 1575.57]},"properties":{"objectType":"annotation","classification":{"name":"ACV.a","color":[230, 153, 77]}}},{"type":"Feature","id":"750ffcfa-0940-41b5-aae8-92105591ffd4","geometry":{"type":"Point","coordinates":[2831.73, 2391.02]},"properties":{"objectType":"annotation","classification":{"name":"PCV.p","color":[196, 255, 0]}}},{"type":"Feature","id":"e70d2999-96af-4749-81aa-dcf9ca9da48f","geometry":{"type":"Point","coordinates":[4142.64, 1419.68]},"properties":{"objectType":"annotation","classification":{"name":"L2-L3","color":[255, 0, 255]}}}]}