{"type":"FeatureCollection","features":[{"type":"Feature","id":"0bb22913-931a-4164-9e9b-7642b7739144","geometry":{"type":"Point","coordinates":[3675.3, 1040.67]},"properties":{"objectType":"annotation","classification":{"name":"subcostal break","color":[240, 214, 69]}}},{"type":"Feature","id":"9f55d038-419f-42d1-b19d-32f71694af56","geometry":{"type":"Point","coordinates":[4354.18, 1889.28]},"properties":{"objectType":"annotation","classification":{"name":"alula notch","color":[65, 51, 214]}}},{"type":"Feature","id":"976292fd-2a94-42f6-be1f-294973c0ff7e","geometry":{"type":"Point","coordinates":[4289.38, 1410.97]},"properties":{"objectType":"annotation","classification":{"name":"L1-Rs","color":[166, 127, 120]}}},{"type":"Feature","id":"6261312a-fdb6-452f-9173-2253f42f6ecc","geometry":{"type":"Point","coordinates":[4437.5, 1605.72]},"properties":{"objectType":"annotation","classification":{"name":"L4-L5","color":[7, 210, 242]}}},{"type":"Feature","id":"a9420cba-6af2-46f9-a9ae-79823ac9fb88","geometry":{"type":"Point","coordinates":[2344.42, 1772.37]},"properties":{"objectType":"annotation","classification":{"name":"PCV.a","color":[0, 255, 0]}}},{"type":"Feature","id":"de8dcdb6-b15a-4068-8487-d81ae028a5f6","geometry":{"type":"Point","coordinates":[120.09, 1521.54]},"properties":{"objectType":"annotation","classification":{"name":"DTip","color":[135, 11, 46]}}},{"type":"Feature","id":"3c3ff57e-0958-4ee1-bbf4-6bd39cb58f6e","geometry":{"type":"Point","coordinates":[3904.24, 1418.8]},"properties":{"objectType":"annotation","classification":{"name":"L2-L3","color":[255, 0, 255]}}},{"type":"Feature","id":"090d87d2-a3d9-4eb0-a15d-5364da9ecb45","geometry":{"type":"Point","coordinates":[3233.91, 1434.95]},"properties":{"objectType":"annotation","classification":{"name":"ACV.a","color":[230, 153, 77]}}},{"type":"Feature","id":"67a3958e-b225-4fc5-bc69-3327e6aaaacb","geometry":{"type":"Point","coordinates":[2442.45, 2152.12]},"properties":{"objectType":"annotation","classification":{"name":"PCV.p","color":[196, 255, 0]}}},{"type":"Feature","id":"a381da88-109e-463b-a8ab-766747d057d1","geometry":{"type":"Point","coordinates":[3252.61, 1604.47]},"properties":{"objectType":"annotation","classification":{"name":"ACV.p","color":[255, 94, 0]}}}]}