{"type":"FeatureCollection","features":[{"type":"Feature","id":"dbafcd9c-e927-4f91-a4c8-2e8154173b4c","geometry":{"type":"Point","coordinates":[5205.26, 1802.7]},"properties":{"objectType":"annotation","classification":{"name":"DTip","color":[135, 11, 46]}}},{"type":"Feature","id":"fd36f2eb-1a62-4f3d-a61b-31e0af7761a5","geometry":{"type":"Point","coordinates":[2837.89, 1776.56]},"properties":{"objectType":"annotation","classification":{"name":"PCV.a","color":[0, 255, 0]}}},{"type":"Feature","id":"00f9e4f0-f167-43a1-bb11-da90c1cbd8ca","geometry":{"type":"Point","coordinates":[2009.9, 1501.91]},"properties":{"objectType":"annotation","classification":{"name":"ACV.p","color":[255, 94, 0]}}},{"type":"Feature","id":"df353949-375c-40ea-a510-aa3ed894e6c1","geometry":{"type":"Point","coordinates":[1697.35, 878.88]},"properties":{"objectType":"annotation","classification":{"name":"subcostal break","color":[240, 214, 69]}}},{"type":"Feature","id":"2b84ba24-996b-4b52-9bf1-f7135e1926bb","geometry":{"type":"Point","coordinates":[898.37, 1698.55]},"properties":{"objectType":"annotation","classification":{"name":"alula notch","color":[65, 51, 214]}}},{"type":"Feature","id":"bd065025-4cb6-4551-acc7-bb45b348d2a9","geometry":{"type":"Point","coordinates":[1013.17, 1184.25]},"properties":{"objectType":"annotation","classification":{"name":"L1-Rs","color":[166, 127, 120]}}},{"type":"Feature","id":"7d0171dc-d317-43bd-99c2-366054593030","geometry":{"type":"Point","coordinates":[853.57, 1363.93]},"properties":{"objectType":"annotation","classification":{"name":"L4-L5","color":[7, 210, 242]}}},{"type":"Feature","id":"f0314a49-cf14-4ea9-971b-f06dcba241a1","geometry":{"type":"Point","coordinates":[2046.36, 1359.28]},"properties":{"objectType":"annotation","classification":{"name":"ACV.a","color":[230, 153, 77]}}},{"type":"Feature","id":"396b4e30-ad40-4924-a319-f2c96b087f7e","geometry":{"type":"Point","coordinates":[1415.11, 1237.46]},"properties":{"objectType":"annotation","classification":{"name":"L2-L3","color":[255, 0, 255]}}},{"type":"Feature","id":"c2c341fc-8fb6-4f67-a5fc-dd3a610f97ec","geometry":{"type":"Point","coordinates":[2730.22, 2176.03]},"properties":{"objectType":"annotation","classification":{"name":"PCV.p","color":[196, 255, 0]}}}]}