{"type":"FeatureCollection","features":[{"type":"Feature","id":"c6cdc4e1-f483-4952-a945-c22e7be256a0","geometry":{"type":"Point","coordinates":[526.07, 2042.29]},"properties":{"objectType":"annotation","classification":{"name":"L4-L5","color":[7, 210, 242]}}},{"type":"Feature","id":"6c745981-e417-4e53-9888-a39d872fe65a","geometry":{"type":"Point","coordinates":[693.55, 1852.17]},"properties":{"objectType":"annotation","classification":{"name":"L1-Rs","color":[166, 127, 120]}}},{"type":"Feature","id":"c4a04912-adb1-4331-8e60-1fbdab97458d","geometry":{"type":"Point","coordinates":[1329.89, 1497.7]},"properties":{"objectType":"annotation","classification":{"name":"subcostal break","color":[240, 214, 69]}}},{"type":"Feature","id":"9b851767-5022-4c5c-995b-c825feeb885b","geometry":{"type":"Point","coordinates":[598.86, 2297.99]},"properties":{"objectType":"annotation","classification":{"name":"alula notch","color":[65, 51, 214]}}},{"type":"Feature","id":"da094ee8-20e1-45f8-9152-8af2e40d4b26","geometry":{"type":"Point","coordinates":[1706.69, 2125.75]},"properties":{"objectType":"annotation","classification":{"name":"ACV.p","color":[255, 94, 0]}}},{"type":"Feature","id":"c32b4fed-ba31-424d-9f34-9d996a762af0","geometry":{"type":"Point","coordinates":[2516.29, 2329.45]},"properties":{"objectType":"annotation","classification":{"name":"PCV.a","color":[0, 255, 0]}}},{"type":"Feature","id":"db552163-a506-4210-8d50-d073510f964d","geometry":{"type":"Point","coordinates":[4826.08, 2275.88]},"properties":{"objectType":"annotation","classification":{"name":"DTip","color":[135, 11, 46]}}},{"type":"Feature","id":"17c298c5-677f-41cf-9ff8-36a8862709e8","geometry":{"type":"Point","coordinates":[1076.15, 1877.88]},"properties":{"objectType":"annotation","classification":{"name":"L2-L3","color":[255, 0, 255]}}},{"type":"Feature","id":"580ed5e8-3b7c-4eb7-81f9-236daf2c447f","geometry":{"type":"Point","coordinates":[1733.98, 1954.49]},"properties":{"objectType":"annotation","classification":{"name":"ACV.a","color":[230, 153, 77]}}},{"type":"Feature","id":"09c6be24-2f9a-4102-8c65-e1236d3507b7","geometry":{"type":"Point","coordinates":[2429.5, 2727.83]},"properties":{"objectType":"annotation","classification":{"name":"PCV.p","color":[196, 255, 0]}}}]}