{"type":"FeatureCollection","features":[{"type":"Feature","id":"c3be3cad-391a-4d4f-afd8-2850864ad462","geometry":{"type":"Point","coordinates":[332.43, 1143.47]},"properties":{"objectType":"annotation","classification":{"name":"DTip","color":[135, 11, 46]}}},{"type":"Feature","id":"bd0bcba2-c5cc-439e-8492-b2b68739f27a","geometry":{"type":"Point","coordinates":[3795.74, 1026.39]},"properties":{"objectType":"annotation","classification":{"name":"subcostal break","color":[240, 214, 69]}}},{"type":"Feature","id":"41a71560-9167-44de-8f3c-102a5a9af29c","geometry":{"type":"Point","coordinates":[4384.6, 1961.04]},"properties":{"objectType":"annotation","classification":{"name":"alula notch","color":[65, 51, 214]}}},{"type":"Feature","id":"274a3223-2f04-4a67-b619-a20f4ab508aa","geometry":{"type":"Point","coordinates":[4374.58, 1467.4]},"properties":{"objectType":"annotation","classification":{"name":"L1-Rs","color":[166, 127, 120]}}},{"type":"Feature","id":"6d11e064-d0e1-476a-af13-21dacf55408e","geometry":{"type":"Point","coordinates":[4482.33, 1682.9]},"properties":{"objectType":"annotation","classification":{"name":"L4-L5","color":[7, 210, 242]}}},{"type":"Feature","id":"69b17fc7-717b-4739-b82c-bd0201fdb769","geometry":{"type":"Point","coordinates":[2460.64, 1614.59]},"properties":{"objectType":"annotation","classification":{"name":"PCV.a","color":[0, 255, 0]}}},{"type":"Feature","id":"23585e06-9d9b-4cdc-b1a0-84cdd6756065","geometry":{"type":"Point","coordinates":[3314.01, 1557.31]},"properties":{"objectType":"annotation","classification":{"name":"ACV.p","color":[255, 94, 0]}}},{"type":"Feature","id":"5241da5a-5065-4b94-b5f1-7f574ca694d5","geometry":{"type":"Point","coordinates":[2531.05, 2021.19]},"properties":{"objectType":"annotation","classification":{"name":"PCV.p","color":[196, 255, 0]}}},{"type":"Feature","id":"43a57b67-602d-48b2-afd5-ef776d886aa8","geometry":{"type":"Point","coordinates":[3329, 1398.15]},"properties":{"objectType":"annotation","classification":{"name":"ACV.a","color":[230, 153, 77]}}},{"type":"Feature","id":"df520516-5723-465a-9f2f-37a1776c21a6","geometry":{"type":"Point","coordinates":[3993.17, 1434.97]},"properties":{"objectType":"annotation","classification":{"name":"L2-L3","color":[255, 0, 255]}}}]}