{"type":"FeatureCollection","features":[{"type":"Feature","id":"c307a1f7-3dc7-453c-bced-beb61cbfbd43","geometry":{"type":"Point","coordinates":[5100.34, 2301.15]},"properties":{"objectType":"annotation","classification":{"name":"DTip","color":[135, 11, 46]}}},{"type":"Feature","id":"fecc3484-6313-450a-b06b-baf7997d3e67","geometry":{"type":"Point","coordinates":[1439.52, 947.89]},"properties":{"objectType":"annotation","classification":{"name":"subcostal break","color":[240, 214, 69]}}},{"type":"Feature","id":"48cd7272-1a33-4353-8909-fb844d1d779e","geometry":{"type":"Point","coordinates":[539.15, 1778.17]},"properties":{"objectType":"annotation","classification":{"name":"alula notch","color":[65, 51, 214]}}},{"type":"Feature","id":"779a3032-732c-4ebe-b6da-8d87f622bd4a","geometry":{"type":"Point","coordinates":[436.71, 1384.59]},"properties":{"objectType":"annotation","classification":{"name":"L4-L5","color":[7, 210, 242]}}},{"type":"Feature","id":"c0ab3602-3bc2-4da4-aa20-7381127f7d41","geometry":{"type":"Point","coordinates":[668.54, 1201.28]},"properties":{"objectType":"annotation","classification":{"name":"L1-Rs","color":[166, 127, 120]}}},{"type":"Feature","id":"61ff3d87-5bed-4249-ad21-feda03b11854","geometry":{"type":"Point","coordinates":[1805.38, 1715.82]},"properties":{"objectType":"annotation","classification":{"name":"ACV.p","color":[255, 94, 0]}}},{"type":"Feature","id":"317f8877-933a-498e-96c6-9fe870ae9e7e","geometry":{"type":"Point","coordinates":[2549.88, 2036.83]},"properties":{"objectType":"annotation","classification":{"name":"PCV.a","color":[0, 255, 0]}}},{"type":"Feature","id":"988110bb-b273-43bb-b48e-c7cdb9b2d786","geometry":{"type":"Point","coordinates":[1074.33, 1288.75]},"properties":{"objectType":"annotation","classification":{"name":"L2-L3","color":[255, 0, 255]}}},{"type":"Feature","id":"1061f2a4-8db1-40ea-8ab1-7245adb14838","geometry":{"type":"Point","coordinates":[1849.62, 1519.21]},"properties":{"objectType":"annotation","classification":{"name":"ACV.a","color":[230, 153, 77]}}},{"type":"Feature","id":"5a3df389-41ce-49b0-88e6-ed4886eba42e","geometry":{"type":"Point","coordinates":[2728.93, 2471.78]},"properties":{"objectType":"annotation","classification":{"name":"PCV.p","color":[196, 255, 0]}}}]}