{"type":"FeatureCollection","features":[{"type":"Feature","id":"5467235a-ab11-450f-9556-739a752b78de","geometry":{"type":"Point","coordinates":[4770.77, 1890.29]},"properties":{"objectType":"annotation","classification":{"name":"alula notch","color":[65, 51, 214]}}},{"type":"Feature","id":"7e653584-4bd3-4df3-a130-ff8aa53c9b02","geometry":{"type":"Point","coordinates":[4869, 1504.58]},"properties":{"objectType":"annotation","classification":{"name":"L4-L5","color":[7, 210, 242]}}},{"type":"Feature","id":"dde54fcb-35ec-49e4-891b-2eef73683300","geometry":{"type":"Point","coordinates":[4672.6, 1304.96]},"properties":{"objectType":"annotation","classification":{"name":"L1-Rs","color":[166, 127, 120]}}},{"type":"Feature","id":"cfc5f144-0273-4b13-9ccb-fcfb4a8567e4","geometry":{"type":"Point","coordinates":[3905.97, 1003.05]},"properties":{"objectType":"annotation","classification":{"name":"subcostal break","color":[240, 214, 69]}}},{"type":"Feature","id":"2caa6d9a-d87a-4012-88d8-93ce47eaf480","geometry":{"type":"Point","coordinates":[98.65, 2256.52]},"properties":{"objectType":"annotation","classification":{"name":"DTip","color":[135, 11, 46]}}},{"type":"Feature","id":"bcd87b8c-a575-4551-9ff4-1cb6a8782734","geometry":{"type":"Point","coordinates":[2688.57, 2082.67]},"properties":{"objectType":"annotation","classification":{"name":"PCV.a","color":[0, 255, 0]}}},{"type":"Feature","id":"7c55d505-f282-4a0f-9d94-3ee9004657db","geometry":{"type":"Point","coordinates":[3533.75, 1753.59]},"properties":{"objectType":"annotation","classification":{"name":"ACV.p","color":[255, 94, 0]}}},{"type":"Feature","id":"d560956b-78e3-4808-80f9-f01757b6d722","geometry":{"type":"Point","coordinates":[2585.61, 2480.14]},"properties":{"objectType":"annotation","classification":{"name":"PCV.p","color":[196, 255, 0]}}},{"type":"Feature","id":"51b32767-eaee-4f00-a261-4239823a4bd1","geometry":{"type":"Point","coordinates":[3480.23, 1562.93]},"properties":{"objectType":"annotation","classification":{"name":"ACV.a","color":[230, 153, 77]}}},{"type":"Feature","id":"08e22583-fa46-4ab7-9bc0-107d2894d0aa","geometry":{"type":"Point","coordinates":[4239.3, 1376.55]},"properties":{"objectType":"annotation","classification":{"name":"L2-L3","color":[255, 0, 255]}}}]}