{"type":"FeatureCollection","features":[{"type":"Feature","id":"5f8feae3-fd20-4415-9033-5e4a69e00080","geometry":{"type":"Point","coordinates":[689.32, 1924.13]},"properties":{"objectType":"annotation","classification":{"name":"alula notch","color":[65, 51, 214]}}},{"type":"Feature","id":"a5b6ce57-d57d-4627-bfe6-1027ebc8dceb","geometry":{"type":"Point","coordinates":[529.32, 1596.07]},"properties":{"objectType":"annotation","classification":{"name":"L4-L5","color":[7, 210, 242]}}},{"type":"Feature","id":"263fcd26-7776-4c02-8964-e5731f000bb9","geometry":{"type":"Point","coordinates":[731.85, 1386.5]},"properties":{"objectType":"annotation","classification":{"name":"L1-Rs","color":[166, 127, 120]}}},{"type":"Feature","id":"2d6efa43-cb17-4975-9e8a-939068a386ae","geometry":{"type":"Point","coordinates":[1428, 986.47]},"properties":{"objectType":"annotation","classification":{"name":"subcostal break","color":[240, 214, 69]}}},{"type":"Feature","id":"4d092d1e-948a-409f-8fc9-3857bc0b950d","geometry":{"type":"Point","coordinates":[5301.37, 1572.08]},"properties":{"objectType":"annotation","classification":{"name":"DTip","color":[135, 11, 46]}}},{"type":"Feature","id":"2f0c772a-424a-4654-920f-f277442a172c","geometry":{"type":"Point","coordinates":[2771.5, 1811.93]},"properties":{"objectType":"annotation","classification":{"name":"PCV.a","color":[0, 255, 0]}}},{"type":"Feature","id":"03dd597b-e824-479e-bfb4-4389d19398e7","geometry":{"type":"Point","coordinates":[1879.68, 1627.85]},"properties":{"objectType":"annotation","classification":{"name":"ACV.p","color":[255, 94, 0]}}},{"type":"Feature","id":"cf806574-8f8b-404b-9894-1c33710fb487","geometry":{"type":"Point","coordinates":[3032.42, 2224.28]},"properties":{"objectType":"annotation","classification":{"name":"PCV.p","color":[196, 255, 0]}}},{"type":"Feature","id":"bc35ceed-ee69-46f3-a8ad-2fc9ef309a56","geometry":{"type":"Point","coordinates":[1898.34, 1452.47]},"properties":{"objectType":"annotation","classification":{"name":"ACV.a","color":[230, 153, 77]}}},{"type":"Feature","id":"a4078736-e1d9-40b7-8005-e3a0f5e3ea92","geometry":{"type":"Point","coordinates":[1117.67, 1392.76]},"properties":{"objectType":"annotation","classification":{"name":"L2-L3","color":[255, 0, 255]}}}]}