{"type":"FeatureCollection","features":[{"type":"Feature","id":"70a9237e-2a58-46f5-9f0b-4c28c9d2dfc3","geometry":{"type":"Point","coordinates":[4960.16, 2527.59]},"properties":{"objectType":"annotation","classification":{"name":"DTip","color":[135, 11, 46]}}},{"type":"Feature","id":"ff00a834-100e-4241-927e-2d82d349c758","geometry":{"type":"Point","coordinates":[728.25, 1194.49]},"properties":{"objectType":"annotation","classification":{"name":"L1-Rs","color":[166, 127, 120]}}},{"type":"Feature","id":"72b7211c-7140-47ef-94cd-5a4ff6da5e57","geometry":{"type":"Point","coordinates":[530.26, 1387.51]},"properties":{"objectType":"annotation","classification":{"name":"L4-L5","color":[7, 210, 242]}}},{"type":"Feature","id":"03fdfd62-a675-4999-8a51-acb603b6213e","geometry":{"type":"Point","coordinates":[1499.33, 1005.35]},"properties":{"objectType":"annotation","classification":{"name":"subcostal break","color":[240, 214, 69]}}},{"type":"Feature","id":"ab3c6cea-4d1b-4e31-b2df-3c499801b21b","geometry":{"type":"Point","coordinates":[566.33, 1760.11]},"properties":{"objectType":"annotation","classification":{"name":"alula notch","color":[65, 51, 214]}}},{"type":"Feature","id":"53f8d481-c2cb-4705-bffd-937529a1293e","geometry":{"type":"Point","coordinates":[1790.98, 1797.21]},"properties":{"objectType":"annotation","classification":{"name":"ACV.p","color":[255, 94, 0]}}},{"type":"Feature","id":"170398c4-95dd-4bca-8b99-661dc5346ab1","geometry":{"type":"Point","coordinates":[2418.23, 2102.7]},"properties":{"objectType":"annotation","classification":{"name":"PCV.a","color":[0, 255, 0]}}},{"type":"Feature","id":"2615b937-986f-4c20-81e9-9036fa4f3ae8","geometry":{"type":"Point","coordinates":[1123.03, 1317.48]},"properties":{"objectType":"annotation","classification":{"name":"L2-L3","color":[255, 0, 255]}}},{"type":"Feature","id":"36bed998-e3ad-4281-a6f3-03b68304b4b0","geometry":{"type":"Point","coordinates":[1848.93, 1572.69]},"properties":{"objectType":"annotation","classification":{"name":"ACV.a","color":[230, 153, 77]}}},{"type":"Feature","id":"59238949-3ffb-4443-9e49-eec27501198b","geometry":{"type":"Point","coordinates":[2621.2, 2556.96]},"properties":{"objectType":"annotation","classification":{"name":"PCV.p","color":[196, 255, 0]}}}]}