{"type":"FeatureCollection","features":[{"type":"Feature","id":"d923f091-9c16-4f1c-a192-dd51ac6e4790","geometry":{"type":"Point","coordinates":[282.31, 2139.46]},"properties":{"objectType":"annotation","classification":{"name":"DTip","color":[135, 11, 46]}}},{"type":"Feature","id":"ddecd08c-f664-49c7-bb23-1c2d67874073","geometry":{"type":"Point","coordinates":[4556.89, 1132.43]},"properties":{"objectType":"annotation","classification":{"name":"L1-Rs","color":[166, 127, 120]}}},{"type":"Feature","id":"2674a2f5-88bc-48b9-897f-58cdcf33eb7e","geometry":{"type":"Point","coordinates":[4767.13, 1268.44]},"properties":{"objectType":"annotation","classification":{"name":"L4-L5","color":[7, 210, 242]}}},{"type":"Feature","id":"b68f7f69-301f-4d6e-9bde-6fa81e81b8af","geometry":{"type":"Point","coordinates":[3802.17, 878.35]},"properties":{"objectType":"annotation","classification":{"name":"subcostal break","color":[240, 214, 69]}}},{"type":"Feature","id":"0645977b-9e69-47a5-b7e6-d0b986a0e182","geometry":{"type":"Point","coordinates":[4742.23, 1652.01]},"properties":{"objectType":"annotation","classification":{"name":"alula notch","color":[65, 51, 214]}}},{"type":"Feature","id":"f2046548-b1f9-40fc-94a5-86d2d081fb35","geometry":{"type":"Point","coordinates":[3539.95, 1575.94]},"properties":{"objectType":"annotation","classification":{"name":"ACV.p","color":[255, 94, 0]}}},{"type":"Feature","id":"0dd475a4-12f5-4f6e-aa33-1bc00d0ca2dc","geometry":{"type":"Point","coordinates":[2743.3, 1971.73]},"properties":{"objectType":"annotation","classification":{"name":"PCV.a","color":[0, 255, 0]}}},{"type":"Feature","id":"022e58a5-6419-412e-9b0c-cb806477b2e7","geometry":{"type":"Point","coordinates":[4166.19, 1221.17]},"properties":{"objectType":"annotation","classification":{"name":"L2-L3","color":[255, 0, 255]}}},{"type":"Feature","id":"787c8b0b-b0ca-4174-9bd3-11e314483df5","geometry":{"type":"Point","coordinates":[3475.39, 1421.4]},"properties":{"objectType":"annotation","classification":{"name":"ACV.a","color":[230, 153, 77]}}},{"type":"Feature","id":"79e800b8-ff53-41c6-9cac-4d75824b638d","geometry":{"type":"Point","coordinates":[2908.48, 2363.75]},"properties":{"objectType":"annotation","classification":{"name":"PCV.p","color":[196, 255, 0]}}}]}