{"type":"FeatureCollection","features":[{"type":"Feature","id":"8756380b-9328-4be6-8d9a-30b97447439c","geometry":{"type":"Point","coordinates":[5321.39, 2355.06]},"properties":{"objectType":"annotation","classification":{"name":"DTip","color":[135, 11, 46]}}},{"type":"Feature","id":"71520159-fd05-46b7-9fd5-9ff781298199","geometry":{"type":"Point","coordinates":[733.24, 1454.68]},"properties":{"objectType":"annotation","classification":{"name":"L1-Rs","color":[166, 127, 120]}}},{"type":"Feature","id":"2b05fe31-5134-4ac3-b254-c0a4b1d1b2fc","geometry":{"type":"Point","coordinates":[1493.44, 1179.72]},"properties":{"objectType":"annotation","classification":{"name":"subcostal break","color":[240, 214, 69]}}},{"type":"Feature","id":"4af5b3bd-c163-463c-b0f2-65dc05ed08e2","geometry":{"type":"Point","coordinates":[551.27, 1973.43]},"properties":{"objectType":"annotation","classification":{"name":"alula notch","color":[65, 51, 214]}}},{"type":"Feature","id":"7764371a-314e-4345-bfee-c09a74e042a9","geometry":{"type":"Point","coordinates":[518.89, 1626.97]},"properties":{"objectType":"annotation","classification":{"name":"L4-L5","color":[7, 210, 242]}}},{"type":"Feature","id":"137a32aa-f3bf-4cd9-96d5-0fd539c76b61","geometry":{"type":"Point","coordinates":[1785.83, 1893.88]},"properties":{"objectType":"annotation","classification":{"name":"ACV.p","color":[255, 94, 0]}}},{"type":"Feature","id":"8641249d-0498-41fe-b67a-0920b6d05817","geometry":{"type":"Point","coordinates":[2650.22, 2230.33]},"properties":{"objectType":"annotation","classification":{"name":"PCV.a","color":[0, 255, 0]}}},{"type":"Feature","id":"8b8bbefd-ffcf-4ba6-8e87-bd4800a3827c","geometry":{"type":"Point","coordinates":[1151.46, 1542.5]},"properties":{"objectType":"annotation","classification":{"name":"L2-L3","color":[255, 0, 255]}}},{"type":"Feature","id":"89ad02bc-47fd-40ae-bb57-9cbf01ac5b60","geometry":{"type":"Point","coordinates":[1849.02, 1714.48]},"properties":{"objectType":"annotation","classification":{"name":"ACV.a","color":[230, 153, 77]}}},{"type":"Feature","id":"c9296a11-edd7-4270-85ee-88d977da21be","geometry":{"type":"Point","coordinates":[2579.6, 2683.08]},"properties":{"objectType":"annotation","classification":{"name":"PCV.p","color":[196, 255, 0]}}}]}