{"type":"FeatureCollection","features":[{"type":"Feature","id":"ce65736d-69b1-4780-b086-01e1d0e717be","geometry":{"type":"Point","coordinates":[75.48, 1983.05]},"properties":{"objectType":"annotation","classification":{"name":"DTip","color":[135, 11, 46]}}},{"type":"Feature","id":"ae0216db-d107-4487-b6a0-c45d6342d286","geometry":{"type":"Point","coordinates":[3964.98, 1024.54]},"properties":{"objectType":"annotation","classification":{"name":"subcostal break","color":[240, 214, 69]}}},{"type":"Feature","id":"63e7ed64-280d-4e28-974e-1f6a4e1e864d","geometry":{"type":"Point","coordinates":[4751.61, 1343.53]},"properties":{"objectType":"annotation","classification":{"name":"L1-Rs","color":[166, 127, 120]}}},{"type":"Feature","id":"955fc0bd-27f5-4195-b19c-811eefcf2104","geometry":{"type":"Point","coordinates":[4934.33, 1532.45]},"properties":{"objectType":"annotation","classification":{"name":"L4-L5","color":[7, 210, 242]}}},{"type":"Feature","id":"8f832f9b-3267-4ba6-be38-4c96a00a2477","geometry":{"type":"Point","coordinates":[4878.58, 1814.27]},"properties":{"objectType":"annotation","classification":{"name":"alula notch","color":[65, 51, 214]}}},{"type":"Feature","id":"10431d1e-8585-4ccc-a7e2-c803762efd73","geometry":{"type":"Point","coordinates":[2724.86, 2016.46]},"properties":{"objectType":"annotation","classification":{"name":"PCV.a","color":[0, 255, 0]}}},{"type":"Feature","id":"34a98f39-f48d-4968-9a94-31ba7ceef5d5","geometry":{"type":"Point","coordinates":[3607.61, 1715.86]},"properties":{"objectType":"annotation","classification":{"name":"ACV.p","color":[255, 94, 0]}}},{"type":"Feature","id":"8e01d1f0-4936-4f75-b408-d2af0fa845ea","geometry":{"type":"Point","coordinates":[2838.22, 2444.73]},"properties":{"objectType":"annotation","classification":{"name":"PCV.p","color":[196, 255, 0]}}},{"type":"Feature","id":"3a477dbb-a5df-46c2-af69-1802d1d9b9ae","geometry":{"type":"Point","coordinates":[3543.77, 1554.33]},"properties":{"objectType":"annotation","classification":{"name":"ACV.a","color":[230, 153, 77]}}},{"type":"Feature","id":"52f77dd6-8d03-4174-9303-b94f6e6e014c","geometry":{"type":"Point","coordinates":[4313.35, 1419.02]},"properties":{"objectType":"annotation","classification":{"name":"L2-L3","color":[255, 0, 255]}}}]}