{"type":"FeatureCollection","features":[{"type":"Feature","id":"4a33243c-915f-4420-98cb-8c6a09b31208","geometry":{"type":"Point","coordinates":[172.53, 2408.98]},"properties":{"objectType":"annotation","classification":{"name":"DTip","color":[135, 11, 46]}}},{"type":"Feature","id":"430ff8dc-1a2f-4037-bad1-bfa5c1025da6","geometry":{"type":"Point","coordinates":[3925, 980.23]},"properties":{"objectType":"annotation","classification":{"name":"subcostal break","color":[240, 214, 69]}}},{"type":"Feature","id":"bdecf3b5-a071-4463-b85e-ab07571a007e","geometry":{"type":"Point","coordinates":[4977.6, 1718.66]},"properties":{"objectType":"annotation","classification":{"name":"alula notch","color":[65, 51, 214]}}},{"type":"Feature","id":"28dd15fd-9374-41ce-be6d-f83ad3d79b69","geometry":{"type":"Point","coordinates":[4786.12, 1212.68]},"properties":{"objectType":"annotation","classification":{"name":"L1-Rs","color":[166, 127, 120]}}},{"type":"Feature","id":"3a6b1775-5e55-4e0c-bb00-5aabf23cdabe","geometry":{"type":"Point","coordinates":[4984.86, 1364.66]},"properties":{"objectType":"annotation","classification":{"name":"L4-L5","color":[7, 210, 242]}}},{"type":"Feature","id":"a72486b1-9448-48c2-be98-46f2a48ad349","geometry":{"type":"Point","coordinates":[2791.09, 2145.01]},"properties":{"objectType":"annotation","classification":{"name":"PCV.a","color":[0, 255, 0]}}},{"type":"Feature","id":"13090538-fdae-46d7-8855-dc6dad976038","geometry":{"type":"Point","coordinates":[3693.82, 1732.71]},"properties":{"objectType":"annotation","classification":{"name":"ACV.p","color":[255, 94, 0]}}},{"type":"Feature","id":"1d3dfa85-1cf7-44a9-886a-ab999873b4a0","geometry":{"type":"Point","coordinates":[4348.71, 1348.81]},"properties":{"objectType":"annotation","classification":{"name":"L2-L3","color":[255, 0, 255]}}},{"type":"Feature","id":"4d8a2776-2de6-4f4e-a1bf-754e5e9b2741","geometry":{"type":"Point","coordinates":[3623.02, 1569.42]},"properties":{"objectType":"annotation","classification":{"name":"ACV.a","color":[230, 153, 77]}}},{"type":"Feature","id":"494c0fd2-660f-4acb-a385-ee799eba4c76","geometry":{"type":"Point","coordinates":[2930.99, 2586.56]},"properties":{"objectType":"annotation","classification":{"name":"PCV.p","color":[196, 255, 0]}}}]}