{"type":"FeatureCollection","features":[{"type":"Feature","id":"36315bc8-04b5-4ae9-be78-3f45b34da757","geometry":{"type":"Point","coordinates":[328.88, 1832.09]},"properties":{"objectType":"annotation","classification":{"name":"DTip","color":[135, 11, 46]}}},{"type":"Feature","id":"4a5eb813-6492-471f-8c13-2d4339540052","geometry":{"type":"Point","coordinates":[4151.44, 802.32]},"properties":{"objectType":"annotation","classification":{"name":"subcostal break","color":[240, 214, 69]}}},{"type":"Feature","id":"236cee96-65e3-4d84-875c-0089ad071e17","geometry":{"type":"Point","coordinates":[5089.55, 1605.65]},"properties":{"objectType":"annotation","classification":{"name":"alula notch","color":[65, 51, 214]}}},{"type":"Feature","id":"16b629ed-52b4-47a4-b97f-8b71c04caccb","geometry":{"type":"Point","coordinates":[5132.69, 1260.59]},"properties":{"objectType":"annotation","classification":{"name":"L4-L5","color":[7, 210, 242]}}},{"type":"Feature","id":"8d40632d-a599-494c-a9ca-3be1238703ed","geometry":{"type":"Point","coordinates":[4938.59, 1082.67]},"properties":{"objectType":"annotation","classification":{"name":"L1-Rs","color":[166, 127, 120]}}},{"type":"Feature","id":"68837388-2c01-4f7f-a66c-ac287597e4d8","geometry":{"type":"Point","coordinates":[3815.73, 1477.87]},"properties":{"objectType":"annotation","classification":{"name":"ACV.p","color":[255, 94, 0]}}},{"type":"Feature","id":"08414736-3772-4ec6-adcb-9db9cfe06481","geometry":{"type":"Point","coordinates":[2951.22, 1808.59]},"properties":{"objectType":"annotation","classification":{"name":"PCV.a","color":[0, 255, 0]}}},{"type":"Feature","id":"e3ca0007-b2bc-4416-a0d9-a820d885370c","geometry":{"type":"Point","coordinates":[3044.6, 2243.89]},"properties":{"objectType":"annotation","classification":{"name":"PCV.p","color":[196, 255, 0]}}},{"type":"Feature","id":"06680351-e0ea-472c-a1a4-196049f580e5","geometry":{"type":"Point","coordinates":[3756.07, 1321.99]},"properties":{"objectType":"annotation","classification":{"name":"ACV.a","color":[230, 153, 77]}}},{"type":"Feature","id":"e3eccca5-9c50-4d73-b5de-59281a3947ae","geometry":{"type":"Point","coordinates":[4503.32, 1153.07]},"properties":{"objectType":"annotation","classification":{"name":"L2-L3","color":[255, 0, 255]}}}]}