{"type":"FeatureCollection","features":[{"type":"Feature","id":"56652073-dbd7-48e7-a6fc-2579a296ac3e","geometry":{"type":"Point","coordinates":[1405.68, 1060.95]},"properties":{"objectType":"annotation","classification":{"name":"subcostal break","color":[240, 214, 69]}}},{"type":"Feature","id":"af5e2aec-1fd4-4ed4-b4f7-bf8e7b733989","geometry":{"type":"Point","coordinates":[459.27, 1843.15]},"properties":{"objectType":"annotation","classification":{"name":"alula notch","color":[65, 51, 214]}}},{"type":"Feature","id":"57be7c1b-7941-44f4-a600-648a3d4d97df","geometry":{"type":"Point","coordinates":[686.17, 1320.69]},"properties":{"objectType":"annotation","classification":{"name":"L1-Rs","color":[166, 127, 120]}}},{"type":"Feature","id":"fc8c8039-ff30-4abf-af57-bdd1d73ccfa0","geometry":{"type":"Point","coordinates":[433.93, 1483.53]},"properties":{"objectType":"annotation","classification":{"name":"L4-L5","color":[7, 210, 242]}}},{"type":"Feature","id":"aa33bbfe-5330-4fcd-9e24-b8ba5f634f78","geometry":{"type":"Point","coordinates":[5253.53, 2261.49]},"properties":{"objectType":"annotation","classification":{"name":"DTip","color":[135, 11, 46]}}},{"type":"Feature","id":"02476222-ebcb-485a-a488-a9e006c70100","geometry":{"type":"Point","coordinates":[1760.73, 1777.12]},"properties":{"objectType":"annotation","classification":{"name":"ACV.p","color":[255, 94, 0]}}},{"type":"Feature","id":"217bda48-f8ca-4b91-947b-45bd8cdd1fc8","geometry":{"type":"Point","coordinates":[2583.79, 2130.84]},"properties":{"objectType":"annotation","classification":{"name":"PCV.a","color":[0, 255, 0]}}},{"type":"Feature","id":"39542a6a-ca65-41bc-9e22-970c84e359ef","geometry":{"type":"Point","coordinates":[2503.5, 2570.38]},"properties":{"objectType":"annotation","classification":{"name":"PCV.p","color":[196, 255, 0]}}},{"type":"Feature","id":"99d97f5c-955f-451c-a379-f17d6b499be7","geometry":{"type":"Point","coordinates":[1821.69, 1604.69]},"properties":{"objectType":"annotation","classification":{"name":"ACV.a","color":[230, 153, 77]}}},{"type":"Feature","id":"c5638efd-9298-4516-b6ce-8c02dbcdacc0","geometry":{"type":"Point","coordinates":[1078.12, 1413.45]},"properties":{"objectType":"annotation","classification":{"name":"L2-L3","color":[255, 0, 255]}}}]}