{"type":"FeatureCollection","features":[{"type":"Feature","id":"2c22877e-6c27-4274-a64a-f1513c266615","geometry":{"type":"Point","coordinates":[5310.6, 1810.52]},"properties":{"objectType":"annotation","classification":{"name":"DTip","color":[135, 11, 46]}}},{"type":"Feature","id":"44efd01f-5e31-4987-b0f1-8d09843d1374","geometry":{"type":"Point","coordinates":[528.36, 1443.9]},"properties":{"objectType":"annotation","classification":{"name":"L4-L5","color":[7, 210, 242]}}},{"type":"Feature","id":"574f9098-a6d3-4ff9-b55a-502dc7c1710c","geometry":{"type":"Point","coordinates":[695.5, 1228.24]},"properties":{"objectType":"annotation","classification":{"name":"L1-Rs","color":[166, 127, 120]}}},{"type":"Feature","id":"0c70cd0e-9e29-40f8-b5d2-7d78050fc431","geometry":{"type":"Point","coordinates":[1498.83, 899.36]},"properties":{"objectType":"annotation","classification":{"name":"subcostal break","color":[240, 214, 69]}}},{"type":"Feature","id":"8906d940-760f-4b80-81e3-3e75d290ca96","geometry":{"type":"Point","coordinates":[604.7, 1771.36]},"properties":{"objectType":"annotation","classification":{"name":"alula notch","color":[65, 51, 214]}}},{"type":"Feature","id":"1aed594c-9698-4ed9-8520-15a23c442139","geometry":{"type":"Point","coordinates":[1838.99, 1580.86]},"properties":{"objectType":"annotation","classification":{"name":"ACV.p","color":[255, 94, 0]}}},{"type":"Feature","id":"871b5b1b-855a-403f-beb7-9c4b0b8e6d7d","geometry":{"type":"Point","coordinates":[2694.56, 1873.33]},"properties":{"objectType":"annotation","classification":{"name":"PCV.a","color":[0, 255, 0]}}},{"type":"Feature","id":"07e3ced5-22ca-4747-b1a2-fe45e7839e0a","geometry":{"type":"Point","coordinates":[1123.11, 1295.95]},"properties":{"objectType":"annotation","classification":{"name":"L2-L3","color":[255, 0, 255]}}},{"type":"Feature","id":"4a874a3f-e155-4e61-80f5-8767fba5d24b","geometry":{"type":"Point","coordinates":[1875.32, 1418.61]},"properties":{"objectType":"annotation","classification":{"name":"ACV.a","color":[230, 153, 77]}}},{"type":"Feature","id":"3783579b-0d13-481b-999d-e1cfe4f5ebb8","geometry":{"type":"Point","coordinates":[2636.39, 2324.51]},"properties":{"objectType":"annotation","classification":{"name":"PCV.p","color":[196, 255, 0]}}}]}