{
  "type": "FeatureCollection",
  "features": [
    {
      "type": "Feature",
      "geometry": {
        "type": "Point",
        "coordinates": [
          2272.3095059492325,
          1678.282537993334
        ]
      },
      "properties": {
        "classification": {
          "name": "ACV.p"
        }
      }
    },
    {
      "type": "Feature",
      "geometry": {
        "type": "Point",
        "coordinates": [
          1157.169129247937,
          1907.2296590659894
        ]
      },
      "properties": {
        "classification": {
          "name": "alula notch"
        }
      }
    },
    {
      "type": "Feature",
      "geometry": {
        "type": "Point",
        "coordinates": [
          5355.543652051285,
          1626.428520590998
        ]
      },
      "properties": {
        "classification": {
          "name": "DTip"
        }
      }
    },
    {
      "type": "Feature",
      "geometry": {
        "type": "Point",
        "coordinates": [
          1232.2993307036852,
          1418.0997635378194
        ]
      },
      "properties": {
        "classification": {
          "name": "L1-Rs"
        }
      }
    },
    {
      "type": "Feature",
      "geometry": {
        "type": "Point",
        "coordinates": [
          1073.8962740143534,
          1606.9117716515213
        ]
      },
      "properties": {
        "classification": {
          "name": "L4-L5"
        }
      }
    },
    {
      "type": "Feature",
      "geometry": {
        "type": "Point",
        "coordinates": [
          3072.435470448221,
          1886.4979944688462
        ]
      },
      "properties": {
        "classification": {
          "name": "PCV.a"
        }
      }
    },
    {
      "type": "Feature",
      "geometry": {
        "type": "Point",
        "coordinates": [
          1868.5237918375863,
          1068.8218688832817
        ]
      },
      "properties": {
        "classification": {
          "name": "subcostal break"
        }
      }
    }
  ]
}