{
  "type": "FeatureCollection",
  "features": [
    {
      "type": "Feature",
      "geometry": {
        "type": "Point",
        "coordinates": [
          3304.952951344712,
          1822.916862918583
        ]
      },
      "properties": {
        "classification": {
          "name": "ACV.p"
        }
      }
    },
    {
      "type": "Feature",
      "geometry": {
        "type": "Point",
        "coordinates": [
          4176.361993875095,
          2165.4827559441524
        ]
      },
      "properties": {
        "classification": {
          "name": "alula notch"
        }
      }
    },
    {
      "type": "Feature",
      "geometry": {
        "type": "Point",
        "coordinates": [
          721.8356392220546,
          1460.9992197744812
        ]
      },
      "properties": {
        "classification": {
          "name": "DTip"
        }
      }
    },
    {
      "type": "Feature",
      "geometry": {
        "type": "Point",
        "coordinates": [
          4175.627761886868,
          1718.6328318616474
        ]
      },
      "properties": {
        "classification": {
          "name": "L1-Rs"
        }
      }
    },
    {
      "type": "Feature",
      "geometry": {
        "type": "Point",
        "coordinates": [
          4283.252062175435,
          1896.7189814797914
        ]
      },
      "properties": {
        "classification": {
          "name": "L4-L5"
        }
      }
    },
    {
      "type": "Feature",
      "geometry": {
        "type": "Point",
        "coordinates": [
          2572.8580020907657,
          1905.2055726284862
        ]
      },
      "properties": {
        "classification": {
          "name": "PCV.a"
        }
      }
    },
    {
      "type": "Feature",
      "geometry": {
        "type": "Point",
        "coordinates": [
          3687.937931365632,
          1335.8806667392844
        ]
      },
      "properties": {
        "classification": {
          "name": "subcostal break"
        }
      }
    }
  ]
}