{
  "type": "FeatureCollection",
  "features": [
    {
      "type": "Feature",
      "geometry": {
        "type": "Point",
        "coordinates": [
          1943.7739526112757,
          1885.9573243596171
        ]
      },
      "properties": {
        "classification": {
          "name": "ACV.p"
        }
      }
    },
    {
      "type": "Feature",
      "geometry": {
        "type": "Point",
        "coordinates": [
          944.7470228323633,
          2010.640527494721
        ]
      },
      "properties": {
        "classification": {
          "name": "alula notch"
        }
      }
    },
    {
      "type": "Feature",
      "geometry": {
        "type": "Point",
        "coordinates": [
          4685.298085472694,
          2083.8543057576744
        ]
      },
      "properties": {
        "classification": {
          "name": "DTip"
        }
      }
    },
    {
      "type": "Feature",
      "geometry": {
        "type": "Point",
        "coordinates": [
          1073.4355239466076,
          1575.9322247965003
        ]
      },
      "properties": {
        "classification": {
          "name": "L1-Rs"
        }
      }
    },
    {
      "type": "Feature",
      "geometry": {
        "type": "Point",
        "coordinates": [
          926.0564725829124,
          1731.0849028918094
        ]
      },
      "properties": {
        "classification": {
          "name": "L4-L5"
        }
      }
    },
    {
      "type": "Feature",
      "geometry": {
        "type": "Point",
        "coordinates": [
          2679.5589336338444,
          2134.9313621093047
        ]
      },
      "properties": {
        "classification": {
          "name": "PCV.a"
        }
      }
    },
    {
      "type": "Feature",
      "geometry": {
        "type": "Point",
        "coordinates": [
          1677.987549192577,
          1297.1045503808625
        ]
      },
      "properties": {
        "classification": {
          "name": "subcostal break"
        }
      }
    }
  ]
}