{"type":"FeatureCollection","features":[{"type":"Feature","id":"b3164d97-56e0-4a53-a54b-3d1fca435844","geometry":{"type":"Point","coordinates":[5133.37, 1710.83]},"properties":{"objectType":"annotation","classification":{"name":"DTip","color":[135, 11, 46]}}},{"type":"Feature","id":"6d9a22c8-9d92-458c-90d5-6ff2f1d72d8a","geometry":{"type":"Point","coordinates":[494.03, 1151.41]},"properties":{"objectType":"annotation","classification":{"name":"L4-L5","color":[7, 210, 242]}}},{"type":"Feature","id":"80450c0c-0bb9-4ae2-abac-4823df43a15e","geometry":{"type":"Point","coordinates":[683.76, 980.46]},"properties":{"objectType":"annotation","classification":{"name":"L1-Rs","color":[229, 160, 147]}}},{"type":"Feature","id":"ac2ea494-28f7-49be-b260-e1572e8dbd3f","geometry":{"type":"Point","coordinates":[564.13, 1507.27]},"properties":{"objectType":"annotation","classification":{"name":"alula notch","color":[65, 51, 214]}}},{"type":"Feature","id":"b8522323-6739-4f98-8c1e-eb96d760a8b6","geometry":{"type":"Point","coordinates":[1454.78, 721.8]},"properties":{"objectType":"annotation","classification":{"name":"subcostal break","color":[240, 172, 69]}}},{"type":"Feature","id":"986dded3-78e8-49f7-b488-adfbcd47581c","geometry":{"type":"Point","coordinates":[1763.21, 1365.48]},"properties":{"objectType":"annotation","classification":{"name":"ACV.p","color":[255, 94, 0]}}},{"type":"Feature","id":"7a1446b1-a5b1-48c5-a575-7cd67bf66ca1","geometry":{"type":"MultiPoint","coordinates":[]},"properties":{"objectType":"annotation"}},{"type":"Feature","id":"26a537fa-2e20-4474-8e03-dcc1d7e02235","geometry":{"type":"Point","coordinates":[2627.5, 1715.59]},"properties":{"objectType":"annotation","classification":{"name":"PCV.a","color":[0, 255, 0]}}}]}