{"type":"FeatureCollection","features":[{"type":"Feature","id":"69e629de-7c85-48d7-a5bd-1febe4eddf86","geometry":{"type":"Point","coordinates":[5153.38, 1955.29]},"properties":{"objectType":"annotation","classification":{"name":"DTip","color":[135, 11, 46]}}},{"type":"Feature","id":"2c3ee790-7f9a-4282-a952-b6c0c7aa6aab","geometry":{"type":"Point","coordinates":[583.56, 1454.89]},"properties":{"objectType":"annotation","classification":{"name":"L4-L5","color":[7, 210, 242]}}},{"type":"Feature","id":"fc5fa4d9-1411-45a3-8656-badbd58a0519","geometry":{"type":"Point","coordinates":[777.86, 1297.96]},"properties":{"objectType":"annotation","classification":{"name":"L1-Rs","color":[229, 160, 147]}}},{"type":"Feature","id":"711b15c7-f691-4eb3-896b-8496826932d5","geometry":{"type":"Point","coordinates":[1463.41, 1051.68]},"properties":{"objectType":"annotation","classification":{"name":"subcostal break","color":[240, 172, 69]}}},{"type":"Feature","id":"e7f88d8c-4e62-43fa-8266-065fbb8f7100","geometry":{"type":"Point","coordinates":[661.69, 1802.61]},"properties":{"objectType":"annotation","classification":{"name":"alula notch","color":[65, 51, 214]}}},{"type":"Feature","id":"8c2fa582-4437-4b1a-855a-8ba83a034fbc","geometry":{"type":"Point","coordinates":[1838.18, 1673.18]},"properties":{"objectType":"annotation","classification":{"name":"ACV.p","color":[255, 94, 0]}}},{"type":"Feature","id":"62c06160-3509-4c67-9da6-569a0bbc63d2","geometry":{"type":"Point","coordinates":[2656.76, 1996.68]},"properties":{"objectType":"annotation","classification":{"name":"PCV.a","color":[0, 255, 0]}}}]}