{"type":"FeatureCollection","features":[{"type":"Feature","id":"91fdf2be-643e-44e9-9621-fcd15835c35a","geometry":{"type":"Point","coordinates":[4920.99, 1377.77]},"properties":{"objectType":"annotation","classification":{"name":"alula notch","color":[65, 51, 214]}}},{"type":"Feature","id":"c99ca565-7f5d-40cb-960a-28ccadf537e0","geometry":{"type":"Point","coordinates":[4014.16, 664.28]},"properties":{"objectType":"annotation","classification":{"name":"subcostal break","color":[240, 172, 69]}}},{"type":"Feature","id":"c88b51b4-792a-4601-8784-c297d078ddd0","geometry":{"type":"Point","coordinates":[4965.37, 1025.37]},"properties":{"objectType":"annotation","classification":{"name":"L4-L5","color":[7, 210, 242]}}},{"type":"Feature","id":"9f7ee21e-4a22-41fe-a9a2-502a996a6798","geometry":{"type":"Point","coordinates":[4775.14, 871.14]},"properties":{"objectType":"annotation","classification":{"name":"L1-Rs","color":[229, 160, 147]}}},{"type":"Feature","id":"7e2e4fa8-4629-48fc-8931-6942de7e0ebe","geometry":{"type":"Point","coordinates":[364.51, 1884.9]},"properties":{"objectType":"annotation","classification":{"name":"DTip","color":[135, 11, 46]}}},{"type":"Feature","id":"32e3fe2e-25a0-43f2-9a69-b0ab7ff65859","geometry":{"type":"Point","coordinates":[3687.82, 1353.18]},"properties":{"objectType":"annotation","classification":{"name":"ACV.p","color":[255, 94, 0]}}},{"type":"Feature","id":"f14a524f-47ca-4980-a609-1a4df1ba12db","geometry":{"type":"Point","coordinates":[2835.96, 1753.82]},"properties":{"objectType":"annotation","classification":{"name":"PCV.a","color":[0, 255, 0]}}}]}