{"type":"FeatureCollection","features":[{"type":"Feature","id":"19ef4559-d8eb-48e9-8df2-cc6edee29859","geometry":{"type":"Point","coordinates":[1509.93, 915.38]},"properties":{"objectType":"annotation","classification":{"name":"subcostal break","color":[240, 172, 69]}}},{"type":"Feature","id":"bb1a2293-a5df-4cba-aaa7-1bb392f61c47","geometry":{"type":"Point","coordinates":[730.25, 1712.55]},"properties":{"objectType":"annotation","classification":{"name":"alula notch","color":[65, 51, 214]}}},{"type":"Feature","id":"adf4f682-c0d5-4d53-b2dc-a4e3b01b2813","geometry":{"type":"Point","coordinates":[822.71, 1212.76]},"properties":{"objectType":"annotation","classification":{"name":"L1-Rs","color":[229, 160, 147]}}},{"type":"Feature","id":"69824512-a088-45d2-9be9-2ade0c94e926","geometry":{"type":"Point","coordinates":[637.79, 1397.68]},"properties":{"objectType":"annotation","classification":{"name":"L4-L5","color":[7, 210, 242]}}},{"type":"Feature","id":"1500007c-84e9-4dc7-bdc1-a23a73f3eea2","geometry":{"type":"Point","coordinates":[5270.85, 1543.09]},"properties":{"objectType":"annotation","classification":{"name":"DTip","color":[135, 11, 46]}}},{"type":"Feature","id":"eff4fbca-8259-4010-9e27-8d9c4dee4123","geometry":{"type":"Point","coordinates":[1929.79, 1493.72]},"properties":{"objectType":"annotation","classification":{"name":"ACV.p","color":[255, 94, 0]}}},{"type":"Feature","id":"4ac584b7-0fc4-4ca2-a43b-30b15bc24baf","geometry":{"type":"Point","coordinates":[2828.25, 1761.19]},"properties":{"objectType":"annotation","classification":{"name":"PCV.a","color":[0, 255, 0]}}}]}