{"type":"FeatureCollection","features":[{"type":"Feature","id":"a7b4e58e-9334-47bf-956d-1c63375f25de","geometry":{"type":"Point","coordinates":[1468.4, 1082.55]},"properties":{"objectType":"annotation","classification":{"name":"subcostal break","color":[240, 172, 69]}}},{"type":"Feature","id":"12613678-2c8f-457c-9c7d-19f519c4a7f9","geometry":{"type":"Point","coordinates":[658.22, 1905]},"properties":{"objectType":"annotation","classification":{"name":"alula notch","color":[65, 51, 214]}}},{"type":"Feature","id":"0b8cb4ae-df4f-442f-b856-f6ac6ffb96cc","geometry":{"type":"Point","coordinates":[750.75, 1401.59]},"properties":{"objectType":"annotation","classification":{"name":"L1-Rs","color":[229, 160, 147]}}},{"type":"Feature","id":"eea4351f-39d0-4699-bf2b-e7c05dd5e3a1","geometry":{"type":"Point","coordinates":[530.73, 1576.26]},"properties":{"objectType":"annotation","classification":{"name":"L4-L5","color":[7, 210, 242]}}},{"type":"Feature","id":"d473a87e-a484-4a4b-81c0-cc5930acf7bc","geometry":{"type":"Point","coordinates":[5167.83, 1967.67]},"properties":{"objectType":"annotation","classification":{"name":"DTip","color":[135, 11, 46]}}},{"type":"Feature","id":"558d7b61-49c6-4158-ae46-bb8a2e3c6a2a","geometry":{"type":"Point","coordinates":[1851.69, 1753.49]},"properties":{"objectType":"annotation","classification":{"name":"ACV.p","color":[255, 94, 0]}}},{"type":"Feature","id":"09eaa9eb-e5bf-4ea6-bde2-b1b9452a2733","geometry":{"type":"Point","coordinates":[2716.36, 2042.33]},"properties":{"objectType":"annotation","classification":{"name":"PCV.a","color":[0, 255, 0]}}}]}