{"type":"FeatureCollection","features":[{"type":"Feature","id":"d1c5d35d-f76f-4a65-b9f9-66f6ecb52262","geometry":{"type":"Point","coordinates":[280.22, 1710]},"properties":{"objectType":"annotation","classification":{"name":"DTip","color":[135, 11, 46]}}},{"type":"Feature","id":"5f5bccc9-1afa-48a9-bb3d-01d1f2aacce0","geometry":{"type":"Point","coordinates":[3819.88, 1174.59]},"properties":{"objectType":"annotation","classification":{"name":"subcostal break","color":[240, 172, 69]}}},{"type":"Feature","id":"5feba033-e7e9-4a5e-ab11-609b8be07f75","geometry":{"type":"Point","coordinates":[4486.43, 2055.82]},"properties":{"objectType":"annotation","classification":{"name":"alula notch","color":[65, 51, 214]}}},{"type":"Feature","id":"b2c894ef-ae4a-4006-9ade-f82d9b506e1a","geometry":{"type":"Point","coordinates":[4443.51, 1547.39]},"properties":{"objectType":"annotation","classification":{"name":"L1-Rs","color":[229, 160, 147]}}},{"type":"Feature","id":"2e859628-413f-4f00-a98f-b4a7c077753b","geometry":{"type":"Point","coordinates":[4569.5, 1754.52]},"properties":{"objectType":"annotation","classification":{"name":"L4-L5","color":[7, 210, 242]}}},{"type":"Feature","id":"4ffd6b6c-de4b-4c6f-9737-ff942112f1b7","geometry":{"type":"Point","coordinates":[3384.37, 1758.79]},"properties":{"objectType":"annotation","classification":{"name":"ACV.p","color":[255, 94, 0]}}},{"type":"Feature","id":"957dd4d8-4110-4da8-88ab-b67ada4cb9de","geometry":{"type":"Point","coordinates":[2416.64, 1952.49]},"properties":{"objectType":"annotation","classification":{"name":"PCV.a","color":[0, 255, 0]}}}]}