{"type":"FeatureCollection","features":[{"type":"Feature","id":"519e9f40-17d5-4977-a3bb-1ff945902c73","geometry":{"type":"Point","coordinates":[3080.23, 1848.76]},"properties":{"objectType":"annotation","classification":{"name":"PCV.a","color":[0, 255, 0]}}},{"type":"Feature","id":"136a7868-829a-411e-af0b-a30593acc637","geometry":{"type":"Point","coordinates":[2282.02, 1679.57]},"properties":{"objectType":"annotation","classification":{"name":"ACV.p","color":[255, 94, 0]}}},{"type":"Feature","id":"31aebc93-9a1e-47c2-9ad5-1f9df4713d1c","geometry":{"type":"Point","coordinates":[1870.8, 1079.73]},"properties":{"objectType":"annotation","classification":{"name":"subcostal break","color":[240, 172, 69]}}},{"type":"Feature","id":"3cd32cf6-097c-4c2e-adb2-ed821d0d03f6","geometry":{"type":"Point","coordinates":[1163.07, 1905.41]},"properties":{"objectType":"annotation","classification":{"name":"alula notch","color":[65, 51, 214]}}},{"type":"Feature","id":"93d38302-ac05-4d0e-bece-2291fa045ae4","geometry":{"type":"Point","coordinates":[1244.98, 1430.31]},"properties":{"objectType":"annotation","classification":{"name":"L1-Rs","color":[229, 160, 147]}}},{"type":"Feature","id":"8e128055-bcd2-4f79-99b0-6b3c90bd4300","geometry":{"type":"Point","coordinates":[1086.43, 1611.25]},"properties":{"objectType":"annotation","classification":{"name":"L4-L5","color":[7, 210, 242]}}},{"type":"Feature","id":"8acff79f-2d0a-4626-8058-9b3767fa4f82","geometry":{"type":"Point","coordinates":[5359.33, 1620.92]},"properties":{"objectType":"annotation","classification":{"name":"DTip","color":[135, 11, 46]}}}]}