{"type":"FeatureCollection","features":[{"type":"Feature","id":"dbafcd9c-e927-4f91-a4c8-2e8154173b4c","geometry":{"type":"Point","coordinates":[5205.26, 1802.7]},"properties":{"objectType":"annotation","classification":{"name":"DTip","color":[135, 11, 46]}}},{"type":"Feature","id":"fd36f2eb-1a62-4f3d-a61b-31e0af7761a5","geometry":{"type":"Point","coordinates":[2837.89, 1776.56]},"properties":{"objectType":"annotation","classification":{"name":"PCV.a","color":[0, 255, 0]}}},{"type":"Feature","id":"00f9e4f0-f167-43a1-bb11-da90c1cbd8ca","geometry":{"type":"Point","coordinates":[2009.9, 1501.91]},"properties":{"objectType":"annotation","classification":{"name":"ACV.p","color":[255, 94, 0]}}},{"type":"Feature","id":"df353949-375c-40ea-a510-aa3ed894e6c1","geometry":{"type":"Point","coordinates":[1697.35, 878.88]},"properties":{"objectType":"annotation","classification":{"name":"subcostal break","color":[240, 172, 69]}}},{"type":"Feature","id":"2b84ba24-996b-4b52-9bf1-f7135e1926bb","geometry":{"type":"Point","coordinates":[898.37, 1698.55]},"properties":{"objectType":"annotation","classification":{"name":"alula notch","color":[65, 51, 214]}}},{"type":"Feature","id":"bd065025-4cb6-4551-acc7-bb45b348d2a9","geometry":{"type":"Point","coordinates":[1013.17, 1184.25]},"properties":{"objectType":"annotation","classification":{"name":"L1-Rs","color":[229, 160, 147]}}},{"type":"Feature","id":"7d0171dc-d317-43bd-99c2-366054593030","geometry":{"type":"Point","coordinates":[853.57, 1363.93]},"properties":{"objectType":"annotation","classification":{"name":"L4-L5","color":[7, 210, 242]}}}]}