{"type":"FeatureCollection","features":[{"type":"Feature","id":"2b09f4b5-33ad-4b3b-8ed1-651f8fb1d113","geometry":{"type":"Point","coordinates":[1077.1, 1528.33]},"properties":{"objectType":"annotation","classification":{"name":"L1-Rs","color":[229, 160, 147]}}},{"type":"Feature","id":"aeae7101-e76f-46df-a9f4-5b07155f3b6a","geometry":{"type":"Point","coordinates":[980.29, 2081.05]},"properties":{"objectType":"annotation","classification":{"name":"alula notch","color":[65, 51, 214]}}},{"type":"Feature","id":"52c7deb5-4598-4db1-816f-b4cc3a6310f4","geometry":{"type":"Point","coordinates":[1757.84, 1272.27]},"properties":{"objectType":"annotation","classification":{"name":"subcostal break","color":[240, 172, 69]}}},{"type":"Feature","id":"8c607b6c-0be7-4d7b-b033-f4600e0fb83c","geometry":{"type":"Point","coordinates":[877.24, 1703.21]},"properties":{"objectType":"annotation","classification":{"name":"L4-L5","color":[7, 210, 242]}}},{"type":"Feature","id":"a0b65122-6a3a-4c6d-846b-47f9be53f5d3","geometry":{"type":"Point","coordinates":[5270.87, 2399.56]},"properties":{"objectType":"annotation","classification":{"name":"DTip","color":[135, 11, 46]}}},{"type":"Feature","id":"9f6f892a-4d00-4f96-88bb-4e1c439562a1","geometry":{"type":"Point","coordinates":[2869.65, 2245.96]},"properties":{"objectType":"annotation","classification":{"name":"PCV.a","color":[0, 255, 0]}}},{"type":"Feature","id":"70dcca3b-1f4f-4b99-a6cf-6849937db46e","geometry":{"type":"Point","coordinates":[2164.76, 1967.21]},"properties":{"objectType":"annotation","classification":{"name":"ACV.p","color":[255, 94, 0]}}}]}