{"type":"FeatureCollection","features":[{"type":"Feature","id":"083d883f-6cb6-4e69-a042-1509b0adf8bb","geometry":{"type":"Point","coordinates":[4069.74, 607.28]},"properties":{"objectType":"annotation","classification":{"name":"subcostal break","color":[240, 172, 69]}}},{"type":"Feature","id":"b8b1c095-d146-43dc-92cb-c3c73d20007c","geometry":{"type":"Point","coordinates":[5011.13, 1386.69]},"properties":{"objectType":"annotation","classification":{"name":"alula notch","color":[65, 51, 214]}}},{"type":"Feature","id":"ebab0798-4a9b-480f-b051-2230cfba40cc","geometry":{"type":"Point","coordinates":[5061.16, 990.69]},"properties":{"objectType":"annotation","classification":{"name":"L4-L5","color":[7, 210, 242]}}},{"type":"Feature","id":"07b3d342-e130-45e2-af6a-537594c48d92","geometry":{"type":"Point","coordinates":[4820.47, 838.59]},"properties":{"objectType":"annotation","classification":{"name":"L1-Rs","color":[229, 160, 147]}}},{"type":"Feature","id":"dc47461e-0023-4294-9e2b-7b4dcb9040a9","geometry":{"type":"Point","coordinates":[2855.19, 1713.82]},"properties":{"objectType":"annotation","classification":{"name":"PCV.a","color":[0, 255, 0]}}},{"type":"Feature","id":"5f2bf783-627f-4c94-932c-b0c3fc1e2f98","geometry":{"type":"Point","coordinates":[3743.56, 1311.76]},"properties":{"objectType":"annotation","classification":{"name":"ACV.p","color":[255, 94, 0]}}},{"type":"Feature","id":"1a57f715-560f-439d-92f1-cb03db358da6","geometry":{"type":"Point","coordinates":[207.92, 1914.63]},"properties":{"objectType":"annotation","classification":{"name":"DTip","color":[135, 11, 46]}}}]}