{"type":"FeatureCollection","features":[{"type":"Feature","id":"c8795e16-2789-4058-bf53-ffe64c31b90c","geometry":{"type":"Point","coordinates":[361.23, 1961.48]},"properties":{"objectType":"annotation","classification":{"name":"DTip","color":[135, 11, 46]}}},{"type":"Feature","id":"584c0829-d77f-44c1-9619-e77af7c953f4","geometry":{"type":"Point","coordinates":[4283.37, 908.35]},"properties":{"objectType":"annotation","classification":{"name":"subcostal break","color":[240, 172, 69]}}},{"type":"Feature","id":"57d6cfc7-5fd4-46de-abbb-5a4b397acd7f","geometry":{"type":"Point","coordinates":[5031.86, 1247.35]},"properties":{"objectType":"annotation","classification":{"name":"L1-Rs","color":[229, 160, 147]}}},{"type":"Feature","id":"51cef162-b016-43d0-b20a-ed699f9dd711","geometry":{"type":"Point","coordinates":[5203.04, 1431.95]},"properties":{"objectType":"annotation","classification":{"name":"L4-L5","color":[7, 210, 242]}}},{"type":"Feature","id":"dabb3888-025b-4ee7-a6ff-8c770643d21d","geometry":{"type":"Point","coordinates":[5166.12, 1782.07]},"properties":{"objectType":"annotation","classification":{"name":"alula notch","color":[65, 51, 214]}}},{"type":"Feature","id":"2c6e8ef3-7bca-48e0-9e3a-33f01c3491ac","geometry":{"type":"Point","coordinates":[2958.28, 1940.62]},"properties":{"objectType":"annotation","classification":{"name":"PCV.a","color":[0, 255, 0]}}},{"type":"Feature","id":"d5d19557-dac4-4476-9fe1-1b9326c07d94","geometry":{"type":"Point","coordinates":[3885.64, 1610.12]},"properties":{"objectType":"annotation","classification":{"name":"ACV.p","color":[255, 94, 0]}}}]}