{"type":"FeatureCollection","features":[{"type":"Feature","id":"369f4e2e-4b68-4bbe-ae19-ef3d1facd258","geometry":{"type":"Point","coordinates":[3833.45, 1141.45]},"properties":{"objectType":"annotation","classification":{"name":"subcostal break","color":[240, 172, 69]}}},{"type":"Feature","id":"f4d74697-a989-44f9-a556-6d149efad0d0","geometry":{"type":"Point","coordinates":[4730.83, 1874.62]},"properties":{"objectType":"annotation","classification":{"name":"alula notch","color":[65, 51, 214]}}},{"type":"Feature","id":"d7f041c9-609b-473a-8c43-7c2dccac98a1","geometry":{"type":"Point","coordinates":[4581.9, 1372.48]},"properties":{"objectType":"annotation","classification":{"name":"L1-Rs","color":[229, 160, 147]}}},{"type":"Feature","id":"e16e5cda-e08e-45a7-ae60-b29c92181618","geometry":{"type":"Point","coordinates":[4763.25, 1523.15]},"properties":{"objectType":"annotation","classification":{"name":"L4-L5","color":[7, 210, 242]}}},{"type":"Feature","id":"9132ecc0-764d-4436-8381-60dd57b8c38a","geometry":{"type":"Point","coordinates":[272.84, 2325.39]},"properties":{"objectType":"annotation","classification":{"name":"DTip","color":[135, 11, 46]}}}]}