{"type":"FeatureCollection","features":[{"type":"Feature","id":"051ed2bd-b21c-44d9-ba04-093d3de1e7b7","geometry":{"type":"Point","coordinates":[250.48, 2100.09]},"properties":{"objectType":"annotation","classification":{"name":"DTip","color":[135, 11, 46]}}},{"type":"Feature","id":"12757b82-4892-4f7e-97d2-7d81980bf21a","geometry":{"type":"Point","coordinates":[4817.47, 2045.19]},"properties":{"objectType":"annotation","classification":{"name":"alula notch","color":[65, 51, 214]}}},{"type":"Feature","id":"27819147-f70e-44e1-af8f-ddeef0f4988c","geometry":{"type":"Point","coordinates":[3991.46, 1221.58]},"properties":{"objectType":"annotation","classification":{"name":"subcostal break","color":[240, 172, 69]}}},{"type":"Feature","id":"476b6ef0-825a-41f6-90ba-c00c1fa00680","geometry":{"type":"Point","coordinates":[4740.41, 1527.42]},"properties":{"objectType":"annotation","classification":{"name":"L1-Rs","color":[229, 160, 147]}}},{"type":"Feature","id":"e342be35-9f22-4f90-9ec6-105b52cad34f","geometry":{"type":"Point","coordinates":[4921.03, 1688.77]},"properties":{"objectType":"annotation","classification":{"name":"L4-L5","color":[7, 210, 242]}}}]}