{"type":"FeatureCollection","features":[{"type":"Feature","id":"77d71c29-8b45-4ffb-81ee-f4b960024d6e","geometry":{"type":"Point","coordinates":[248.01, 2031.57]},"properties":{"objectType":"annotation","classification":{"name":"DTip","color":[135, 11, 46]}}},{"type":"Feature","id":"76894895-e826-477f-94ba-a807019a191f","geometry":{"type":"Point","coordinates":[3854.91, 1088.06]},"properties":{"objectType":"annotation","classification":{"name":"subcostal break","color":[240, 172, 69]}}},{"type":"Feature","id":"41e4863d-8697-433f-b07d-3c5fb79ba788","geometry":{"type":"Point","coordinates":[4674.41, 1848.26]},"properties":{"objectType":"annotation","classification":{"name":"alula notch","color":[65, 51, 214]}}},{"type":"Feature","id":"d649c78f-9902-4a87-86d4-7afc3ae2c780","geometry":{"type":"Point","coordinates":[4722.93, 1524.77]},"properties":{"objectType":"annotation","classification":{"name":"L4-L5","color":[7, 210, 242]}}},{"type":"Feature","id":"9d51b8a6-f92e-483f-aaa7-b1ca615feddf","geometry":{"type":"Point","coordinates":[4545.01, 1368.42]},"properties":{"objectType":"annotation","classification":{"name":"L1-Rs","color":[229, 160, 147]}}}]}