{"type":"FeatureCollection","features":[{"type":"Feature","id":"71f96c12-f4ff-453f-9615-8646e635bcdf","geometry":{"type":"Point","coordinates":[4794.4, 1474.18]},"properties":{"objectType":"annotation","classification":{"name":"L4-L5","color":[7, 210, 242]}}},{"type":"Feature","id":"6a4d760f-88b9-40ed-8dec-a768a9862542","geometry":{"type":"Point","coordinates":[4726.97, 1803.3]},"properties":{"objectType":"annotation","classification":{"name":"alula notch","color":[65, 51, 214]}}},{"type":"Feature","id":"1341153c-5a52-44f8-a097-efc97064a572","geometry":{"type":"Point","coordinates":[3898.91, 1055.48]},"properties":{"objectType":"annotation","classification":{"name":"subcostal break","color":[240, 172, 69]}}},{"type":"Feature","id":"d768f460-736f-4993-a26e-b405b0edb3f6","geometry":{"type":"Point","coordinates":[331.59, 2095.46]},"properties":{"objectType":"annotation","classification":{"name":"DTip","color":[135, 11, 46]}}},{"type":"Feature","id":"68208f33-2d28-400b-8ecb-a05ace6c881a","geometry":{"type":"Point","coordinates":[4571.75, 1310.27]},"properties":{"objectType":"annotation","classification":{"name":"L1-Rs","color":[229, 160, 147]}}}]}