{"type":"FeatureCollection","features":[{"type":"Feature","id":"5f8feae3-fd20-4415-9033-5e4a69e00080","geometry":{"type":"Point","coordinates":[689.32, 1924.13]},"properties":{"objectType":"annotation","classification":{"name":"alula notch","color":[65, 51, 214]}}},{"type":"Feature","id":"a5b6ce57-d57d-4627-bfe6-1027ebc8dceb","geometry":{"type":"Point","coordinates":[529.32, 1596.07]},"properties":{"objectType":"annotation","classification":{"name":"L4-L5","color":[7, 210, 242]}}},{"type":"Feature","id":"263fcd26-7776-4c02-8964-e5731f000bb9","geometry":{"type":"Point","coordinates":[731.85, 1386.5]},"properties":{"objectType":"annotation","classification":{"name":"L1-Rs","color":[229, 160, 147]}}},{"type":"Feature","id":"2d6efa43-cb17-4975-9e8a-939068a386ae","geometry":{"type":"Point","coordinates":[1428, 986.47]},"properties":{"objectType":"annotation","classification":{"name":"subcostal break","color":[240, 172, 69]}}},{"type":"Feature","id":"4d092d1e-948a-409f-8fc9-3857bc0b950d","geometry":{"type":"Point","coordinates":[5301.37, 1572.08]},"properties":{"objectType":"annotation","classification":{"name":"DTip","color":[135, 11, 46]}}}]}