{"type":"FeatureCollection","features":[{"type":"Feature","id":"c307a1f7-3dc7-453c-bced-beb61cbfbd43","geometry":{"type":"Point","coordinates":[5100.34, 2301.15]},"properties":{"objectType":"annotation","classification":{"name":"DTip","color":[135, 11, 46]}}},{"type":"Feature","id":"fecc3484-6313-450a-b06b-baf7997d3e67","geometry":{"type":"Point","coordinates":[1439.52, 947.89]},"properties":{"objectType":"annotation","classification":{"name":"subcostal break","color":[240, 172, 69]}}},{"type":"Feature","id":"48cd7272-1a33-4353-8909-fb844d1d779e","geometry":{"type":"Point","coordinates":[539.15, 1778.17]},"properties":{"objectType":"annotation","classification":{"name":"alula notch","color":[65, 51, 214]}}},{"type":"Feature","id":"779a3032-732c-4ebe-b6da-8d87f622bd4a","geometry":{"type":"Point","coordinates":[436.71, 1384.59]},"properties":{"objectType":"annotation","classification":{"name":"L4-L5","color":[7, 210, 242]}}},{"type":"Feature","id":"c0ab3602-3bc2-4da4-aa20-7381127f7d41","geometry":{"type":"Point","coordinates":[668.54, 1201.28]},"properties":{"objectType":"annotation","classification":{"name":"L1-Rs","color":[229, 160, 147]}}}]}