{"type":"FeatureCollection","features":[{"type":"Feature","id":"2c22877e-6c27-4274-a64a-f1513c266615","geometry":{"type":"Point","coordinates":[5310.6, 1810.52]},"properties":{"objectType":"annotation","classification":{"name":"DTip","color":[135, 11, 46]}}},{"type":"Feature","id":"44efd01f-5e31-4987-b0f1-8d09843d1374","geometry":{"type":"Point","coordinates":[528.36, 1443.9]},"properties":{"objectType":"annotation","classification":{"name":"L4-L5","color":[7, 210, 242]}}},{"type":"Feature","id":"574f9098-a6d3-4ff9-b55a-502dc7c1710c","geometry":{"type":"Point","coordinates":[695.5, 1228.24]},"properties":{"objectType":"annotation","classification":{"name":"L1-Rs","color":[229, 160, 147]}}},{"type":"Feature","id":"0c70cd0e-9e29-40f8-b5d2-7d78050fc431","geometry":{"type":"Point","coordinates":[1498.83, 899.36]},"properties":{"objectType":"annotation","classification":{"name":"subcostal break","color":[240, 172, 69]}}},{"type":"Feature","id":"8906d940-760f-4b80-81e3-3e75d290ca96","geometry":{"type":"Point","coordinates":[604.7, 1771.36]},"properties":{"objectType":"annotation","classification":{"name":"alula notch","color":[65, 51, 214]}}}]}