{"type":"FeatureCollection","features":[{"type":"Feature","id":"56652073-dbd7-48e7-a6fc-2579a296ac3e","geometry":{"type":"Point","coordinates":[1405.68, 1060.95]},"properties":{"objectType":"annotation","classification":{"name":"subcostal break","color":[240, 172, 69]}}},{"type":"Feature","id":"af5e2aec-1fd4-4ed4-b4f7-bf8e7b733989","geometry":{"type":"Point","coordinates":[459.27, 1843.15]},"properties":{"objectType":"annotation","classification":{"name":"alula notch","color":[65, 51, 214]}}},{"type":"Feature","id":"57be7c1b-7941-44f4-a600-648a3d4d97df","geometry":{"type":"Point","coordinates":[686.17, 1320.69]},"properties":{"objectType":"annotation","classification":{"name":"L1-Rs","color":[229, 160, 147]}}},{"type":"Feature","id":"fc8c8039-ff30-4abf-af57-bdd1d73ccfa0","geometry":{"type":"Point","coordinates":[433.93, 1483.53]},"properties":{"objectType":"annotation","classification":{"name":"L4-L5","color":[7, 210, 242]}}},{"type":"Feature","id":"aa33bbfe-5330-4fcd-9e24-b8ba5f634f78","geometry":{"type":"Point","coordinates":[5253.53, 2261.49]},"properties":{"objectType":"annotation","classification":{"name":"DTip","color":[135, 11, 46]}}}]}