{"type":"FeatureCollection","features":[{"type":"Feature","id":"4a33243c-915f-4420-98cb-8c6a09b31208","geometry":{"type":"Point","coordinates":[172.53, 2408.98]},"properties":{"objectType":"annotation","classification":{"name":"DTip","color":[135, 11, 46]}}},{"type":"Feature","id":"430ff8dc-1a2f-4037-bad1-bfa5c1025da6","geometry":{"type":"Point","coordinates":[3925, 980.23]},"properties":{"objectType":"annotation","classification":{"name":"subcostal break","color":[240, 172, 69]}}},{"type":"Feature","id":"bdecf3b5-a071-4463-b85e-ab07571a007e","geometry":{"type":"Point","coordinates":[4977.6, 1718.66]},"properties":{"objectType":"annotation","classification":{"name":"alula notch","color":[65, 51, 214]}}},{"type":"Feature","id":"28dd15fd-9374-41ce-be6d-f83ad3d79b69","geometry":{"type":"Point","coordinates":[4786.12, 1212.68]},"properties":{"objectType":"annotation","classification":{"name":"L1-Rs","color":[229, 160, 147]}}},{"type":"Feature","id":"3a6b1775-5e55-4e0c-bb00-5aabf23cdabe","geometry":{"type":"Point","coordinates":[4984.86, 1364.66]},"properties":{"objectType":"annotation","classification":{"name":"L4-L5","color":[7, 210, 242]}}}]}