{"type":"FeatureCollection","features":[{"type":"Feature","id":"d923f091-9c16-4f1c-a192-dd51ac6e4790","geometry":{"type":"Point","coordinates":[282.31, 2139.46]},"properties":{"objectType":"annotation","classification":{"name":"DTip","color":[135, 11, 46]}}},{"type":"Feature","id":"ddecd08c-f664-49c7-bb23-1c2d67874073","geometry":{"type":"Point","coordinates":[4556.89, 1132.43]},"properties":{"objectType":"annotation","classification":{"name":"L1-Rs","color":[229, 160, 147]}}},{"type":"Feature","id":"2674a2f5-88bc-48b9-897f-58cdcf33eb7e","geometry":{"type":"Point","coordinates":[4767.13, 1268.44]},"properties":{"objectType":"annotation","classification":{"name":"L4-L5","color":[7, 210, 242]}}},{"type":"Feature","id":"b68f7f69-301f-4d6e-9bde-6fa81e81b8af","geometry":{"type":"Point","coordinates":[3802.17, 878.35]},"properties":{"objectType":"annotation","classification":{"name":"subcostal break","color":[240, 172, 69]}}},{"type":"Feature","id":"0645977b-9e69-47a5-b7e6-d0b986a0e182","geometry":{"type":"Point","coordinates":[4742.23, 1652.01]},"properties":{"objectType":"annotation","classification":{"name":"alula notch","color":[65, 51, 214]}}}]}