{"type":"FeatureCollection","features":[{"type":"Feature","id":"3916ff42-18e3-418e-b54d-27d7dbc901db","geometry":{"type":"Point","coordinates":[1420.59, 1132.32]},"properties":{"objectType":"annotation","classification":{"name":"subcostal break","color":[240, 172, 69]}}},{"type":"Feature","id":"84b2562d-7e3a-4bfe-a624-7f108ddce132","geometry":{"type":"Point","coordinates":[515.15, 1990.71]},"properties":{"objectType":"annotation","classification":{"name":"alula notch","color":[65, 51, 214]}}},{"type":"Feature","id":"b831d839-b59a-4edf-b430-56e43236401a","geometry":{"type":"Point","coordinates":[464.85, 1625.61]},"properties":{"objectType":"annotation","classification":{"name":"L4-L5","color":[7, 210, 242]}}},{"type":"Feature","id":"ee288b9f-3364-4fac-bcf8-22ae1ac5eaec","geometry":{"type":"Point","coordinates":[647.78, 1420.29]},"properties":{"objectType":"annotation","classification":{"name":"L1-Rs","color":[229, 160, 147]}}},{"type":"Feature","id":"c7b3fc31-8372-4aac-899e-85c4b704e58b","geometry":{"type":"Point","coordinates":[5317.57, 2179]},"properties":{"objectType":"annotation","classification":{"name":"DTip","color":[135, 11, 46]}}}]}