{"type":"FeatureCollection","features":[{"type":"Feature","id":"ce65736d-69b1-4780-b086-01e1d0e717be","geometry":{"type":"Point","coordinates":[75.48, 1983.05]},"properties":{"objectType":"annotation","classification":{"name":"DTip","color":[135, 11, 46]}}},{"type":"Feature","id":"ae0216db-d107-4487-b6a0-c45d6342d286","geometry":{"type":"Point","coordinates":[3964.98, 1024.54]},"properties":{"objectType":"annotation","classification":{"name":"subcostal break","color":[240, 172, 69]}}},{"type":"Feature","id":"63e7ed64-280d-4e28-974e-1f6a4e1e864d","geometry":{"type":"Point","coordinates":[4751.61, 1343.53]},"properties":{"objectType":"annotation","classification":{"name":"L1-Rs","color":[229, 160, 147]}}},{"type":"Feature","id":"955fc0bd-27f5-4195-b19c-811eefcf2104","geometry":{"type":"Point","coordinates":[4934.33, 1532.45]},"properties":{"objectType":"annotation","classification":{"name":"L4-L5","color":[7, 210, 242]}}},{"type":"Feature","id":"8f832f9b-3267-4ba6-be38-4c96a00a2477","geometry":{"type":"Point","coordinates":[4878.58, 1814.27]},"properties":{"objectType":"annotation","classification":{"name":"alula notch","color":[65, 51, 214]}}}]}