{"type":"FeatureCollection","features":[{"type":"Feature","id":"083d883f-6cb6-4e69-a042-1509b0adf8bb","geometry":{"type":"Point","coordinates":[4069.74, 607.28]},"properties":{"objectType":"annotation","classification":{"name":"subcostal break","color":[240, 172, 69]}}},{"type":"Feature","id":"b8b1c095-d146-43dc-92cb-c3c73d20007c","geometry":{"type":"Point","coordinates":[5011.13, 1386.69]},"properties":{"objectType":"annotation","classification":{"name":"alula notch","color":[65, 51, 214]}}},{"type":"Feature","id":"ebab0798-4a9b-480f-b051-2230cfba40cc","geometry":{"type":"Point","coordinates":[5061.16, 990.69]},"properties":{"objectType":"annotation","classification":{"name":"L4-L5","color":[7, 210, 242]}}},{"type":"Feature","id":"e1d0c736-1f4b-457e-8921-3a24443fd0a6","geometry":{"type":"MultiPoint","coordinates":[[207.92, 1914.63],[3090.97, 275.14]]},"properties":{"objectType":"annotation","classification":{"name":"DTip","color":[135, 11, 46]}}},{"type":"Feature","id":"07b3d342-e130-45e2-af6a-537594c48d92","geometry":{"type":"Point","coordinates":[4820.47, 838.59]},"properties":{"objectType":"annotation","classification":{"name":"L1-Rs","color":[229, 160, 147]}}}]}